[
    {
        "Altitude(m)": 624792.7677698074,
        "Argument of Periapsis(deg)": 0.0,
        "Eccentricity": 0.0,
        "Inclination(deg)": 60.0,
        "Latitude(deg)": -59.147074528750366,
        "Longitude(deg)": 179.02622406737297,
        "Mean Anomaly(deg)": 261.8182,
        "RAAN(deg)": 25.0,
        "Satellite Name": "Test1 126",
        "Satellite Number": 126,
        "Semi-Major Axis(m)": 6980739.136638005,
        "Time(s)": 0
    },
    {
        "Altitude(m)": 624842.1605105853,
        "Argument of Periapsis(deg)": 0.00010418945913296404,
        "Eccentricity": 0.0,
        "Inclination(deg)": 60.0,
        "Latitude(deg)": -59.2891602323495,
        "Longitude(deg)": -179.84427327267127,
        "Mean Anomaly(deg)": 262.43830614546187,
        "RAAN(deg)": 24.99957995086026,
        "Satellite Name": "Test1 126",
        "Satellite Number": 126,
        "Semi-Major Axis(m)": 6980739.136638005,
        "Time(s)": 10
    }
]